$$SOE
2459580.500000000, A.D. 2022-Jan-01 00:00:00.0000, 2.299134308865258E+08, -3.965950819252232E+08, 4.742339339852399E+07,
2459587.500000000, A.D. 2022-Jan-08 00:00:00.0000, 2.388157750521620E+08, -3.912636968476669E+08, 4.607026660686368E+07,
2459594.500000000, A.D. 2022-Jan-15 00:00:00.0000, 2.475996801849489E+08, -3.857380113155472E+08, 4.469424448337308E+07,
2459601.500000000, A.D. 2022-Jan-22 00:00:00.0000, 2.562606667749708E+08, -3.800205698972370E+08, 4.329598658801349E+07,
2459608.500000000, A.D. 2022-Jan-29 00:00:00.0000, 2.647943155471886E+08, -3.741140266172512E+08, 4.187616631897952E+07,
2459615.500000000, A.D. 2022-Feb-05 00:00:00.0000, 2.731962684975179E+08, -3.680211442455429E+08, 4.043547065571921E+07,
2459622.500000000, A.D. 2022-Feb-12 00:00:00.0000, 2.814622320649053E+08, -3.617447945438233E+08, 3.897459960185248E+07,
2459629.500000000, A.D. 2022-Feb-19 00:00:00.0000, 2.895879811107503E+08, -3.552879571010191E+08, 3.749426564355452E+07,
2459636.500000000, A.D. 2022-Feb-26 00:00:00.0000, 2.975693623900765E+08, -3.486537174825746E+08, 3.599519328503911E+07,
2459643.500000000, A.D. 2022-Mar-05 00:00:00.0000, 3.054022976692289E+08, -3.418452653121045E+08, 3.447811859642242E+07,
2459650.500000000, A.D. 2022-Mar-12 00:00:00.0000, 3.130827867074729E+08, -3.348658923527816E+08, 3.294378874851637E+07,
2459657.500000000, A.D. 2022-Mar-19 00:00:00.0000, 3.206069101691178E+08, -3.277189905622687E+08, 3.139296153059313E+07,
2459664.500000000, A.D. 2022-Mar-26 00:00:00.0000, 3.279708324839962E+08, -3.204080501290678E+08, 2.982640484882769E+07,
2459671.500000000, A.D. 2022-Apr-02 00:00:00.0000, 3.351708047194266E+08, -3.129366575478225E+08, 2.824489619483195E+07,
2459678.500000000, A.D. 2022-Apr-09 00:00:00.0000, 3.422031677315927E+08, -3.053084937302022E+08, 2.664922206001225E+07,
2459685.500000000, A.D. 2022-Apr-16 00:00:00.0000, 3.490643559505517E+08, -2.975273314995105E+08, 2.504017731708378E+07,
2459692.500000000, A.D. 2022-Apr-23 00:00:00.0000, 3.557509005275433E+08, -2.895970313887195E+08, 2.341856477467750E+07,
2459699.500000000, A.D. 2022-Apr-30 00:00:00.0000, 3.622594299705884E+08, -2.815215379916198E+08, 2.178519489380968E+07,
2459706.500000000, A.D. 2022-May-07 00:00:00.0000, 3.685866713261875E+08, -2.733048788435589E+08, 2.014088522436787E+07,
2459713.500000000, A.D. 2022-May-14 00:00:00.0000, 3.747294532925836E+08, -2.649511627964055E+08, 1.848645968299885E+07,
2459720.500000000, A.D. 2022-May-21 00:00:00.0000, 3.806847092299470E+08, -2.564645771329851E+08, 1.682274792144041E+07,
2459727.500000000, A.D. 2022-May-28 00:00:00.0000, 3.864494795843038E+08, -2.478493843835703E+08, 1.515058475148474E+07,
2459734.500000000, A.D. 2022-Jun-04 00:00:00.0000, 3.920209139978125E+08, -2.391099191600823E+08, 1.347080957612661E+07,
2459741.500000000, A.D. 2022-Jun-11 00:00:00.0000, 3.973962732466072E+08, -2.302505850080419E+08, 1.178426581445707E+07,
2459748.500000000, A.D. 2022-Jun-18 00:00:00.0000, 4.025729310430643E+08, -2.212758512656136E+08, 1.009180031873576E+07,
2459755.500000000, A.D. 2022-Jun-25 00:00:00.0000, 4.075483757311141E+08, -2.121902499668103E+08, 8.394262779306993E+06,
2459762.500000000, A.D. 2022-Jul-02 00:00:00.0000, 4.123202120075290E+08, -2.029983728594629E+08, 6.692505100743100E+06,
2459769.500000000, A.D. 2022-Jul-09 00:00:00.0000, 4.168861630577475E+08, -1.937048683656754E+08, 4.987380728837200E+06,
2459776.500000000, A.D. 2022-Jul-16 00:00:00.0000, 4.212440730501476E+08, -1.843144374064885E+08, 3.279744023055881E+06,
2459783.500000000, A.D. 2022-Jul-23 00:00:00.0000, 4.253919077903461E+08, -1.748318280189589E+08, 1.570449883578956E+06,
2459790.500000000, A.D. 2022-Jul-30 00:00:00.0000, 4.293277536177146E+08, -1.652618321258269E+08, -1.396466480744928E+05,
2459797.500000000, A.D. 2022-Aug-06 00:00:00.0000, 4.330498181396049E+08, -1.556092838138611E+08, -1.849691091347300E+06,
2459804.500000000, A.D. 2022-Aug-13 00:00:00.0000, 4.365564319785066E+08, -1.458790563701580E+08, -3.558830230424352E+06,
2459811.500000000, A.D. 2022-Aug-20 00:00:00.0000, 4.398460499623035E+08, -1.360760585844515E+08, -5.266212715736628E+06,
2459818.500000000, A.D. 2022-Aug-27 00:00:00.0000, 4.429172518251323E+08, -1.262052310489694E+08, -6.970989627927832E+06,
2459825.500000000, A.D. 2022-Sep-03 00:00:00.0000, 4.457687426659572E+08, -1.162715425711860E+08, -8.672315035233669E+06,
2459832.500000000, A.D. 2022-Sep-10 00:00:00.0000, 4.483993532542455E+08, -1.062799866801001E+08, -1.036934654979657E+07,
2459839.500000000, A.D. 2022-Sep-17 00:00:00.0000, 4.508080402117853E+08, -9.623557823209886E+07, -1.206124588503050E+07,
2459846.500000000, A.D. 2022-Sep-24 00:00:00.0000, 4.529938861311012E+08, -8.614335017154956E+07, -1.374717942310677E+07,
2459853.500000000, A.D. 2022-Oct-01 00:00:00.0000, 4.549560998704378E+08, -7.600835047261949E+07, -1.542631881591407E+07,
2459860.500000000, A.D. 2022-Oct-08 00:00:00.0000, 4.566940174325601E+08, -6.583563874368639E+07, -1.709784161377501E+07,
2459867.500000000, A.D. 2022-Oct-15 00:00:00.0000, 4.582071024975150E+08, -5.563028129790042E+07, -1.876093173799012E+07,
2459874.500000000, A.D. 2022-Oct-22 00:00:00.0000, 4.594949444322179E+08, -4.539734637837348E+07, -2.041477973441166E+07,
2459881.500000000, A.D. 2022-Oct-29 00:00:00.0000, 4.605572562770377E+08, -3.514190213747431E+07, -2.205858324909419E+07,
2459888.500000000, A.D. 2022-Nov-05 00:00:00.0000, 4.613938748089793E+08, -2.486901463343832E+07, -2.369154769447816E+07,
2459895.500000000, A.D. 2022-Nov-12 00:00:00.0000, 4.620047607183163E+08, -1.458374458056065E+07, -2.531288682206056E+07,
2459902.500000000, A.D. 2022-Nov-19 00:00:00.0000, 4.623899981819229E+08, -4.291143810904446E+06, -2.692182321325193E+07,
2459909.500000000, A.D. 2022-Nov-26 00:00:00.0000, 4.625497940981268E+08, 6.003748151327183E+06, -2.851758874462692E+07,
2459916.500000000, A.D. 2022-Dec-03 00:00:00.0000, 4.624844771517601E+08, 1.629590738766121E+07, -3.009942504337008E+07,
2459923.500000000, A.D. 2022-Dec-10 00:00:00.0000, 4.621944967578448E+08, 2.658032877084964E+07, -3.166658393514474E+07,
2459930.500000000, A.D. 2022-Dec-17 00:00:00.0000, 4.616804219119594E+08, 3.685202900985204E+07, -3.321832788825078E+07,
2459937.500000000, A.D. 2022-Dec-24 00:00:00.0000, 4.609429400603874E+08, 4.710604948523626E+07, -3.475393046905836E+07,
2459944.500000000, A.D. 2022-Dec-31 00:00:00.0000, 4.599828563510934E+08, 5.733745897895197E+07, -3.627267683230877E+07,
2459951.500000000, A.D. 2023-Jan-07 00:00:00.0000, 4.588010933906357E+08, 6.754135725785828E+07, -3.777386417830602E+07,
2459958.500000000, A.D. 2023-Jan-14 00:00:00.0000, 4.573986895438452E+08, 7.771288000635032E+07, -3.925680195531185E+07,
2459965.500000000, A.D. 2023-Jan-21 00:00:00.0000, 4.557767951383443E+08, 8.784720193269838E+07, -4.072081200700712E+07,
2459972.500000000, A.D. 2023-Jan-28 00:00:00.0000, 4.539366702461976E+08, 9.793953784860243E+07, -4.216522901718207E+07,
2459979.500000000, A.D. 2023-Feb-04 00:00:00.0000, 4.518796838355497E+08, 1.079851447458476E+08, -4.358940098439440E+07,
2459986.500000000, A.D. 2023-Feb-11 00:00:00.0000, 4.496073124989788E+08, 1.179793246740564E+08, -4.499268957689417E+07,
2459993.500000000, A.D. 2023-Feb-18 00:00:00.0000, 4.471211386980007E+08, 1.279174275947954E+08, -4.637447042846604E+07,
2460000.500000000, A.D. 2023-Feb-25 00:00:00.0000, 4.444228487901051E+08, 1.377948540495761E+08, -4.773413341181401E+07,
2460007.500000000, A.D. 2023-Mar-04 00:00:00.0000, 4.415142309454522E+08, 1.476070576602616E+08, -4.907108289686902E+07,
2460014.500000000, A.D. 2023-Mar-11 00:00:00.0000, 4.383971729877635E+08, 1.573495474616989E+08, -5.038473799638176E+07,
2460021.500000000, A.D. 2023-Mar-18 00:00:00.0000, 4.350736602125019E+08, 1.670178900157533E+08, -5.167453280707678E+07,
2460028.500000000, A.D. 2023-Mar-25 00:00:00.0000, 4.315457733912036E+08, 1.766077112576449E+08, -5.293991666883649E+07,
2460035.500000000, A.D. 2023-Apr-01 00:00:00.0000, 4.278156873907853E+08, 1.861146984654608E+08, -5.418035444859648E+07,
2460042.500000000, A.D. 2023-Apr-08 00:00:00.0000, 4.238856697944645E+08, 1.955346035756491E+08, -5.539532669193797E+07,
2460049.500000000, A.D. 2023-Apr-15 00:00:00.0000, 4.197580771898067E+08, 2.048632467387994E+08, -5.658432951801214E+07,
2460056.500000000, A.D. 2023-Apr-22 00:00:00.0000, 4.154353509388154E+08, 2.140965170642445E+08, -5.774687467356934E+07,
2460063.500000000, A.D. 2023-Apr-29 00:00:00.0000, 4.109200151689920E+08, 2.232303728046071E+08, -5.888248981321356E+07,
2460070.500000000, A.D. 2023-May-06 00:00:00.0000, 4.062146752269787E+08, 2.322608427607096E+08, -5.999071869890927E+07,
2460077.500000000, A.D. 2023-May-13 00:00:00.0000, 4.013220156207615E+08, 2.411840280137736E+08, -6.107112130247696E+07,
2460084.500000000, A.D. 2023-May-20 00:00:00.0000, 3.962447976878785E+08, 2.499961034944081E+08, -6.212327387325519E+07,
2460091.500000000, A.D. 2023-May-27 00:00:00.0000, 3.909858571863293E+08, 2.586933193595747E+08, -6.314676899176458E+07,
2460098.500000000, A.D. 2023-Jun-03 00:00:00.0000, 3.855481018688298E+08, 2.672720022042967E+08, -6.414121561327875E+07,
2460105.500000000, A.D. 2023-Jun-10 00:00:00.0000, 3.799345090671465E+08, 2.757285560953759E+08, -6.510623910540184E+07,
2460112.500000000, A.D. 2023-Jun-17 00:00:00.0000, 3.741481233785496E+08, 2.840594633683551E+08, -6.604148129358161E+07,
2460119.500000000, A.D. 2023-Jun-24 00:00:00.0000, 3.681920547776487E+08, 2.922612852448290E+08, -6.694660054031454E+07,
2460126.500000000, A.D. 2023-Jul-01 00:00:00.0000, 3.620694774098479E+08, 3.003306630989665E+08, -6.782127181446765E+07,
2460133.500000000, A.D. 2023-Jul-08 00:00:00.0000, 3.557836273936384E+08, 3.082643211956152E+08, -6.866518653030314E+07,
2460140.500000000, A.D. 2023-Jul-15 00:00:00.0000, 3.493377983563385E+08, 3.160590680732443E+08, -6.947805227076131E+07,
2460147.500000000, A.D. 2023-Jul-22 00:00:00.0000, 3.427353382291714E+08, 3.237117955407753E+08, -7.025959280381966E+07,
$$EOE